LARES-2                 
1 53105U 22080A   26127.16150228 -.00000008  00000+0  00000+0 0  9996
2 53105  70.1704 319.3995 0005357 343.8104  16.2342  6.38965197 89040
GREENCUBE (IO-117)      
1 53109U 22080E   26134.41119754 -.00000003  00000+0  00000+0 0  9990
2 53109  70.1435 309.9963 0008807 297.4178  62.5586  6.42583317 89895
STARLINK-4410           
1 53204U 22084R   26135.33334491 -.00016995  00000+0 -83810-3 0  9991
2 53204  97.6004 195.9465 0000871  12.8933   6.1283 15.17874919  5796
COSMOS 2558             
1 53323U 22089A   26134.14864505  .00066331  00000+0  57680-3 0  9993
2 53323  97.2255 237.0029 0002677 172.7139 187.4162 15.68856496212487
TECMS                   
1 53346U 22090A   26135.27286637  .00002140  00000+0  98268-4 0  9995
2 53346  97.3150 204.3104 0001549 332.1663  27.9490 15.21443560209806
DONGPO 02               
1 53452U 22098J   26135.31939306  .00048831  00000+0  42925-3 0  9999
2 53452  97.5476 263.8361 0002416 117.0935 243.0573 15.68659464209635
DONGPO 01               
1 53453U 22098K   26135.33489723  .00045813  00000+0  42992-3 0  9996
2 53453  97.5541 264.4476 0000853 152.2167 207.9139 15.67060490209602
STARLINK-4400           
1 53468U 22099D   26135.28151694 -.00000404  00000+0 -23926-4 0  9996
2 53468  97.4921 255.5745 0000583 116.2258 243.9029 15.05656817205992
STARLINK-4621           
1 53676U 22105AE  26135.21784384  .00021827  00000+0  15166-2 0  9991
2 53676  97.4894  15.5184 0001193 102.2408 257.8953 15.05541086203240
SHERPA-LTC2             
1 53754U 22107BG  26134.65536821  .00004410  00000+0  22993-3 0  9994
2 53754  53.2348   2.2398 0397615 132.3235 231.2157 14.69197830197618
CENTISPACE-1 S3         
1 53757U 22108A   26135.30687631  .00000124  00000+0  63073-4 0  9990
2 53757  53.5317 191.2181 0008198 254.5785 105.4285 14.61220661196727
CENTISPACE-1 S4         
1 53758U 22108B   26135.30639223  .00000191  00000+0  75482-4 0  9996
2 53758  53.5292 188.8928 0007914 240.0722 119.9468 14.61893792196754
BLUEWALKER-3            
1 53807U 22111AL  26135.29934214  .00003332  00000+0  98616-4 0  9995
2 53807  53.2283 188.3183 0007435  75.8539 284.3292 15.37852027205148
YUNHAI-1 03             
1 53877U 22115A   26135.29376072  .00000249  00000+0  10741-3 0  9994
2 53877  98.5536 133.8599 0005571 133.2967 226.8683 14.32694607190800
CENTISPACE-1 S5         
1 54020U 22126A   26135.08294401  .00000454  00000+0  12459-3 0  9995
2 54020  55.0000 345.4265 0012550   7.2379 352.8794 14.62950755192197
CENTISPACE-1 S6         
1 54021U 22126B   26135.12824021  .00000347  00000+0  10541-3 0  9999
2 54021  55.0003 346.9586 0014397   6.2227 353.8943 14.62240510192160
OTB-3-GAZELLE           
1 54023U 22127A   26134.42196015  .00000092  00000+0  40588-4 0  9991
2 54023  98.3942 126.6426 0011922 293.0390  66.9542 14.42661758189496
ASO-S                   
1 54029U 22129A   26135.31550541  .00000106  00000+0  37165-4 0  9999
2 54029  98.2755 140.8667 0014059 188.4112 171.6850 14.52044533190654
HJ-2E                   
1 54035U 22132A   26135.28189656  .00004612  00000+0  20493-3 0  9992
2 54035  97.3801 140.2651 0022460 122.3298 238.0117 15.21793816199416
COSMOS 2561             
1 54109U 22137A   26134.16660913  .00009558  00000+0  16688-3 0  9990
2 54109  96.9223 194.4544 0011193 143.4457 216.7562 15.50811886201078
GONETS-M 23             
1 54150U 22139A   26135.25903321  .00000040  00000+0  21812-3 0  9994
2 54150  82.5095   8.7595 0020713 295.3800  64.5135 12.42889283161559
GONETS-M 24             
1 54151U 22139B   26135.31265336  .00000041  00000+0  22196-3 0  9996
2 54151  82.5012   7.8086 0016084 306.7452  53.2150 12.42889911161561
GONETS-M 25             
1 54152U 22139C   26135.29900422  .00000031  00000+0  15454-3 0  9994
2 54152  82.5072   8.4856 0019971 304.5918  55.3277 12.42889085161566
SKIF-D                  
1 54153U 22139D   26133.48138712  .00000028  00000+0  00000+0 0  9992
2 54153  89.9555  96.6781 0007415 214.6423 145.3442  5.00438534 62370
MATS                    
1 54227U 22147A   26135.01030219  .00002413  00000+0  17366-3 0  9994
2 54227  97.6832 136.7568 0011266 318.3316  41.7051 15.05140770192778
JILIN-1 GAOFEN 03D54    
1 54254U 22155D   26135.22946112  .00125265  00000+0  57337-3 0  9997
2 54254  97.6090 284.3899 0001826 169.6784 190.4522 15.83373468195066
EOS-6 (OCEANSAT-3)      
1 54361U 22158A   26135.31694421  .00000140  00000+0  50483-4 0  9992
2 54361  98.3514 233.9505 0002214  84.7277 275.4168 14.47020255183085
DONGPO 09               
1 54685U 22167D   26135.31447686  .00006695  00000+0  19613-3 0  9990
2 54685  97.6872 304.8797 0001657 209.0305 151.0846 15.35571195190406
DONGPO 08               
1 54686U 22167E   26135.30350951  .00005578  00000+0  17772-3 0  9991
2 54686  97.6833 302.2001 0006842 284.6637  75.3846 15.32967417190289
2022-167F               
1 54687U 22167F   26135.28253656  .00084098  00000+0  42357-3 0  9994
2 54687  97.6156 319.4363 0003193 173.3441 186.7869 15.81420604191618
