OBJECT_NAME,OBJECT_ID,EPOCH,MEAN_MOTION,ECCENTRICITY,INCLINATION,RA_OF_ASC_NODE,ARG_OF_PERICENTER,MEAN_ANOMALY,EPHEMERIS_TYPE,CLASSIFICATION_TYPE,NORAD_CAT_ID,ELEMENT_SET_NO,REV_AT_EPOCH,BSTAR,MEAN_MOTION_DOT,MEAN_MOTION_DDOT
LARES-2,2022-080A,2026-05-07T03:52:33.796992,6.38965197,.0005357,70.1704,319.3995,343.8104,16.2342,0,U,53105,999,8904,0,-.8E-7,0
GREENCUBE (IO-117),2022-080E,2026-05-14T09:52:07.467456,6.42583317,.0008807,70.1435,309.9963,297.4178,62.5586,0,U,53109,999,8989,0,-.3E-7,0
STARLINK-4410,2022-084R,2026-05-15T08:00:01.000224,15.17874919,.00008718,97.6004,195.9465,12.8933,6.1283,0,U,53204,999,579,-.83809612E-3,-.16995E-3,0
COSMOS 2558,2022-089A,2026-05-14T03:34:02.932320,15.68856496,.0002677,97.2255,237.0029,172.7139,187.4162,0,U,53323,999,21248,.5768E-3,.66331E-3,0
TECMS,2022-090A,2026-05-15T06:32:55.654368,15.21443560,.00015496,97.3150,204.3104,332.1663,27.9490,0,U,53346,999,20980,.98268074E-4,.214E-4,0
DONGPO 02,2022-098J,2026-05-15T07:39:55.560384,15.68659464,.00024167,97.5476,263.8361,117.0935,243.0573,0,U,53452,999,20963,.4292482E-3,.48831E-3,0
DONGPO 01,2022-098K,2026-05-15T08:02:15.120672,15.67060490,.00008534,97.5541,264.4476,152.2167,207.9139,0,U,53453,999,20960,.42991654E-3,.45813E-3,0
STARLINK-4400,2022-099D,2026-05-15T06:45:23.063616,15.05656817,.00005838,97.4921,255.5745,116.2258,243.9029,0,U,53468,999,20599,-.239255E-4,-.404E-5,0
STARLINK-4621,2022-105AE,2026-05-15T05:13:41.707776,15.05541086,.00011933,97.4894,15.5184,102.2408,257.8953,0,U,53676,999,20324,.15166098E-2,.21827E-3,0
SHERPA-LTC2,2022-107BG,2026-05-14T15:43:43.813344,14.69197830,.03976156,53.2348,2.2398,132.3235,231.2157,0,U,53754,999,19761,.22993313E-3,.441E-4,0
CENTISPACE-1 S3,2022-108A,2026-05-15T07:21:54.113184,14.61220661,.00081983,53.5317,191.2181,254.5785,105.4285,0,U,53757,999,19672,.63072544E-4,.124E-5,0
CENTISPACE-1 S4,2022-108B,2026-05-15T07:21:12.288672,14.61893792,.00079143,53.5292,188.8928,240.0722,119.9468,0,U,53758,999,19675,.75481695E-4,.191E-5,0
BLUEWALKER-3,2022-111AL,2026-05-15T07:11:03.160896,15.37852027,.00074358,53.2283,188.3183,75.8539,284.3292,0,U,53807,999,20514,.98616041E-4,.3332E-4,0
YUNHAI-1 03,2022-115A,2026-05-15T07:03:00.926208,14.32694607,.00055713,98.5536,133.8599,133.2967,226.8683,0,U,53877,999,19080,.10740681E-3,.249E-5,0
CENTISPACE-1 S5,2022-126A,2026-05-15T01:59:26.362464,14.62950755,.00125504,55.0000,345.4265,7.2379,352.8794,0,U,54020,999,19219,.12458725E-3,.454E-5,0
CENTISPACE-1 S6,2022-126B,2026-05-15T03:04:39.954144,14.62240510,.00143977,55.0003,346.9586,6.2227,353.8943,0,U,54021,999,19216,.10540573E-3,.347E-5,0
OTB-3-GAZELLE,2022-127A,2026-05-14T10:07:37.356960,14.42661758,.00119228,98.3942,126.6426,293.0390,66.9542,0,U,54023,999,18949,.40588026E-4,.92E-6,0
ASO-S,2022-129A,2026-05-15T07:34:19.667424,14.52044533,.00140594,98.2755,140.8667,188.4112,171.6850,0,U,54029,999,19065,.37165418E-4,.106E-5,0
HJ-2E,2022-132A,2026-05-15T06:45:55.862784,15.21793816,.00224609,97.3801,140.2651,122.3298,238.0117,0,U,54035,999,19941,.20492653E-3,.4612E-4,0
COSMOS 2561,2022-137A,2026-05-14T03:59:55.028832,15.50811886,.0011193,96.9223,194.4544,143.4457,216.7562,0,U,54109,999,20107,.16688E-3,.9558E-4,0
GONETS-M 23,2022-139A,2026-05-15T06:13:00.469344,12.42889283,.00207133,82.5095,8.7595,295.3800,64.5135,0,U,54150,999,16155,.21811747E-3,.4E-6,0
GONETS-M 24,2022-139B,2026-05-15T07:30:13.250304,12.42889911,.00160849,82.5012,7.8086,306.7452,53.2150,0,U,54151,999,16156,.22195776E-3,.41E-6,0
GONETS-M 25,2022-139C,2026-05-15T07:10:33.964608,12.42889085,.00199715,82.5072,8.4856,304.5918,55.3277,0,U,54152,999,16156,.15453653E-3,.31E-6,0
SKIF-D,2022-139D,2026-05-13T11:33:11.847168,5.00438534,.0007415,89.9555,96.6781,214.6423,145.3442,0,U,54153,999,6237,0,.28E-6,0
MATS,2022-147A,2026-05-15T00:14:50.109216,15.05140770,.00112664,97.6832,136.7568,318.3316,41.7051,0,U,54227,999,19277,.17365685E-3,.2413E-4,0
JILIN-1 GAOFEN 03D54,2022-155D,2026-05-15T05:30:25.440768,15.83373468,.00018262,97.6090,284.3899,169.6784,190.4522,0,U,54254,999,19506,.57337344E-3,.125265E-2,0
EOS-6 (OCEANSAT-3),2022-158A,2026-05-15T07:36:23.979744,14.47020255,.00022146,98.3514,233.9505,84.7277,275.4168,0,U,54361,999,18308,.50483311E-4,.14E-5,0
DONGPO 09,2022-167D,2026-05-15T07:32:50.800704,15.35571195,.00016577,97.6872,304.8797,209.0305,151.0846,0,U,54685,999,19040,.19612989E-3,.6695E-4,0
DONGPO 08,2022-167E,2026-05-15T07:17:03.221664,15.32967417,.00068421,97.6833,302.2001,284.6637,75.3846,0,U,54686,999,19028,.17771787E-3,.5578E-4,0
2022-167F,2022-167F,2026-05-15T06:46:51.158784,15.81420604,.00031938,97.6156,319.4363,173.3441,186.7869,0,U,54687,999,19161,.42356993E-3,.84098E-3,0
